ESTCUBE 1               
1 39161U 13021C   22301.42342650  .00001134  00000+0  18314-3 0  9999
2 39161  97.8988  15.1516 0009389   3.0672 357.0569 14.73219456509042
FENGYUN 3C              
1 39260U 13052A   22301.54343736  .00000083  00000+0  62760-4 0  9999
2 39260  98.4463 322.8687 0009952 249.6773 110.3341 14.15953685470758
CASSIOPE                
1 39265U 13055A   22301.51047918  .00010067  00000+0  26614-3 0  9997
2 39265  80.9615 125.9818 0609176 283.0877  70.3030 14.41758523471481
ZACUBE-1 (TSHEPISOSAT)  
1 39417U 13066B   22301.46291555  .00003156  00000+0  38536-3 0  9997
2 39417  97.6545 267.1027 0056348 330.0908  29.7090 14.82873519482836
CINEMA-3 (KHUSAT-2)     
1 39426U 13066L   22301.33211797  .00000885  00000+0  14266-3 0  9993
2 39426  97.8086 235.5563 0102938 169.3178 191.0250 14.70425906478792
TRITON-1                
1 39427U 13066M   22301.35099467  .00001349  00000+0  21593-3 0  9991
2 39427  97.8201 231.4255 0110435 199.0931 160.6122 14.69376432478295
DELFI-N3XT              
1 39428U 13066N   22301.37790170  .00002379  00000+0  36752-3 0  9990
2 39428  97.8200 230.0921 0114860 212.0864 147.3317 14.69867717478050
GOMX-1                  
1 39430U 13066Q   22301.44977041  .00001881  00000+0  34071-3 0  9994
2 39430  97.7967 200.9889 0148466 346.0532  13.6574 14.60527637475704
BRITE-PL1 (LEM)         
1 39431U 13066R   22301.51725301  .00000627  00000+0  14218-3 0  9991
2 39431  97.6859 143.3290 0201240 175.9304 184.3587 14.47470186471613
ICUBE-1                 
1 39432U 13066S   22301.48134209  .00003633  00000+0  35453-3 0  9993
2 39432  97.4741 298.4377 0030704 175.9356 184.2120 14.92656295484547
HUMSAT-D                
1 39433U 13066T   22301.49821601  .00004971  00000+0  45226-3 0  9999
2 39433  97.4512 306.1944 0029955 148.7120 211.5892 14.95281975485097
VELOX-PII               
1 39438U 13066Y   22301.43587492  .00002637  00000+0  34699-3 0  9994
2 39438  97.7102 258.4832 0069677  24.8158 335.6378 14.79298814480662
FIRST-MOVE              
1 39439U 13066Z   22301.45175973  .00006423  00000+0  72989-3 0  9995
2 39439  97.6538 269.8621 0060449 324.1335  35.5828 14.85269632481781
CUBEBUG-2 (LO-74)       
1 39440U 13066AA  22301.42371122  .00002592  00000+0  35234-3 0  9993
2 39440  97.7425 253.5199 0079682  60.6339 300.2800 14.77441872479917
NEE-02 KRYSAOR          
1 39441U 13066AB  22301.40898130  .00001568  00000+0  22250-3 0  9991
2 39441  97.7534 250.6073 0081740  74.9003 286.1233 14.76052324479643
FUNCUBE-1 (AO-73)       
1 39444U 13066AE  22301.44623290  .00003669  00000+0  43474-3 0  9996
2 39444  97.6420 269.5157 0054688 317.3597  42.3378 14.84074951481244
HINCUBE                 
1 39445U 13066AF  22301.44814368  .00003645  00000+0  43406-3 0  9994
2 39445  97.6435 269.3235 0054833 319.7426  39.9734 14.83867560481181
UWE-3                   
1 39446U 13066AG  22301.41794923  .00002814  00000+0  36380-3 0  9996
2 39446  97.7035 259.8773 0068653  17.1831 343.1683 14.80045534480126
AIST-1 (RS-41)          
1 39492U 13078C   22301.55186936  .00001070  00000+0  11171-3 0  9998
2 39492  82.4146 109.2547 0020468  28.9676 331.2652 14.88681162479580
SPROUT                  
1 39770U 14029E   22301.33797839  .00008036  00000+0  78250-3 0  9990
2 39770  97.9534  59.3298 0008057   9.9421 350.1955 14.92757197457473
UNISAT-6                
1 40012U 14033C   22301.47728589  .00001586  00000+0  23496-3 0  9992
2 40012  97.6626 122.3863 0058393  88.1101 272.6795 14.75276471449590
BUGSAT-1 (TITA)         
1 40014U 14033E   22301.55541140  .00002527  00000+0  22188-3 0  9992
2 40014  98.1462 305.4725 0029451 318.8433  41.0566 14.97268950456051
DUCHIFAT-1              
1 40021U 14033M   22301.41996081  .00005855  00000+0  55637-3 0  9995
2 40021  98.0282 254.1988 0011124 330.3354  29.7233 14.93834570454547
NANOSATC-BR1            
1 40024U 14033Q   22301.39912293  .00004424  00000+0  43601-3 0  9997
2 40024  97.9989 246.8186 0010871 338.0206  22.0545 14.92520057453800
QB50P1                  
1 40025U 14033R   22301.35810502  .00003006  00000+0  30843-3 0  9993
2 40025  97.9703 239.8911 0011625 347.9796  12.1142 14.91151167453561
DTUSAT-2                
1 40030U 14033W   22301.32755628  .00002576  00000+0  26909-3 0  9992
2 40030  97.9446 234.7039 0011108 345.2786  14.8107 14.90553493453435
QB50P2                  
1 40032U 14033Y   22301.50354179  .00003752  00000+0  38937-3 0  9991
2 40032  97.9453 234.8959 0011025 345.9652  14.1258 14.90534738453435
POLYITAN-1              
1 40042U 14033AJ  22301.36561050  .00003826  00000+0  38918-3 0  9995
2 40042  97.9814 241.2831 0013492 338.6557  21.4097 14.91316120453459
TIGRISAT                
1 40043U 14033AK  22301.51798435  .00001270  00000+0  18917-3 0  9990
2 40043  97.6563 123.6395 0060282  85.3669 275.4423 14.75305323449246
AISAT                   
1 40054U 14034B   22301.49466984  .00003668  00000+0  48742-3 0  9993
2 40054  98.3664 118.3687 0011314 248.2331 111.7676 14.80377873449158
CANX-4                  
1 40055U 14034C   22301.45599725  .00000999  00000+0  15432-3 0  9994
2 40055  98.3718 102.8969 0013017 297.2227  62.7654 14.75649810448337
CANX-5                  
1 40056U 14034D   22301.46288839  .00001026  00000+0  15818-3 0  9997
2 40056  98.3719 102.8833 0013034 297.2851  62.7029 14.75646967439146
VELOX-I                 
1 40057U 14034E   22301.55584079  .00002410  00000+0  32842-3 0  9997
2 40057  98.3711 119.5266 0009541 264.2548  95.7569 14.79681756449155
METEOR-M 2              
1 40069U 14037A   22301.50079374  .00000041  00000+0  38289-4 0  9995
2 40069  98.4300 313.2221 0004687 303.4721  56.6013 14.20723898430758
DX1                     
1 40071U 14037C   22301.61917307  .00000933  00000+0  12465-3 0  9994
2 40071  98.3868 176.8449 0007071 247.2725 112.7746 14.82081412449061
UKUBE-1                 
1 40074U 14037F   22301.64289079  .00002303  00000+0  27087-3 0  9997
2 40074  98.3625 189.1782 0003178 202.6701 157.4351 14.85927909449842
FIREBIRD 3              
1 40377U 15003B   22301.43685052  .00030731  00000+0  80174-3 0  9997
2 40377  99.0783 196.3150 0088092 293.9241  65.2788 15.34836392428779
FIREBIRD 4              
1 40378U 15003C   22301.51861991  .00030552  00000+0  79455-3 0  9996
2 40378  99.0792 196.6600 0087969 293.1366  66.0620 15.34942456428790
GRIFEX                  
1 40379U 15003D   22301.24376029  .00015905  00000+0  52201-3 0  9995
2 40379  99.0896 180.6284 0108724 341.7794  17.9556 15.26105695427851
CP10 (EXOCUBE)          
1 40380U 15003E   22301.20809518  .00012446  00000+0  45397-3 0  9992
2 40380  99.1006 172.6952 0119029   8.2809 352.0349 15.21844056427334
DEORBITSAIL             
1 40719U 15032E   22301.48492244  .00003076  00000+0  42235-3 0  9991
2 40719  97.7609 175.3001 0014508 296.4694  63.5029 14.79003073393549
NUDT-PHONESAT           
1 40900U 15049B   22301.46832933  .00038976  00000+0  85331-3 0  9993
2 40900  97.3918 320.7404 0009380 152.0221 314.1491 15.43978244395079
XW-2A                   
1 40903U 15049E   22301.44262884  .00032054  00000+0  39393-3 0  9994
2 40903  97.1616   0.5635 0007199 355.8715 130.8256 15.60192266399944
XW-2C                   
1 40906U 15049H   22301.47910480  .00006247  00000+0  28836-3 0  9997
2 40906  97.4967 303.9734 0011274 252.6601 234.3656 15.20526632393128
XW-2D                   
1 40907U 15049J   22301.50212152  .00007154  00000+0  32154-3 0  9999
2 40907  97.4958 304.1075 0010602 246.7326 233.7147 15.21395832393183
LILACSAT-2              
1 40908U 15049K   22301.48448420  .00003450  00000+0  17970-3 0  9990
2 40908  97.5222 300.8555 0013091 277.1774 204.2441 15.16609742392647
XW-2E                   
1 40909U 15049L   22301.51233770  .00011290  00000+0  43930-3 0  9991
2 40909  97.4656 308.9879 0009843 218.1363 268.6056 15.26138599393684
XW-2F                   
1 40910U 15049M   22301.48713160  .00011274  00000+0  44577-3 0  9995
2 40910  97.4733 308.1299 0010536 222.2450 266.0374 15.25594492393440
XW-2B                   
1 40911U 15049N   22301.46888448  .00007157  00000+0  32292-3 0  9992
2 40911  97.4944 304.6282 0010449 247.2806 216.5379 15.21264505393061
KAITUO 1B               
1 40912U 15049P   22301.46476903  .00012945  00000+0  46002-3 0  9997
2 40912  97.4345 312.4594 0011837 180.7028 283.5151 15.29078191394053
TIANWANG 1A (TW-1A)     
1 40928U 15051D   22301.54400515  .00111550  00000+0  70186-3 0  9994
2 40928  97.0242 324.1129 0004809 205.3245 281.8579 15.76365610399060
LAPAN-A2                
1 40931U 15052B   22301.42141784  .00001046  00000+0  56087-4 0  9999
2 40931   5.9965 300.5017 0013284 256.5136 103.3543 14.76898835383030
LQSAT                   
1 40958U 15057A   22301.37310137  .00000452  00000+0  76763-4 0  9990
2 40958  97.7354 341.5399 0016606 251.2114 108.7301 14.73476779379556
ATHENOXAT 1             
1 41168U 15077C   22301.35414602  .00019750  00000+0  73487-3 0  9996
2 41168  14.9798 182.9650 0009144 312.4354 198.1024 15.24932436380590
GALASSIA                
1 41170U 15077E   22301.33859855  .00014927  00000+0  57737-3 0  9991
2 41170  14.9863 175.4285 0010648 339.7644  20.2256 15.23235920380496
VELOX-II                
1 41171U 15077F   22301.23503718  .00010782  00000+0  48066-3 0  9995
2 41171  14.9912 256.8510 0007203 166.3342 193.7174 15.17893345379801
CHUBUSAT-2              
1 41338U 16012B   22301.28080471  .00002708  00000+0  19562-3 0  9999
2 41338  31.0030 257.8714 0012827  30.5293 329.6087 15.01902433367463
CHUBUSAT-3              
1 41339U 16012C   22301.26824122  .00002383  00000+0  17126-3 0  9990
2 41339  31.0116 254.8619 0012729  36.7948 323.3560 15.01938261367461
HORYU-4                 
1 41340U 16012D   22301.20137606  .00004448  00000+0  30595-3 0  9999
2 41340  31.0039 230.8717 0012387  82.8514 277.3530 15.04212575367721
